FM4                                                               
1 25159C 98007C   19033.92545406  .00000000  00000-0  00000-0 0  9997
2 25159 108.0012  62.7584 0045589 322.7544  37.0435 14.29618641 91493
